OBJECT_NAME,OBJECT_ID,EPOCH,MEAN_MOTION,ECCENTRICITY,INCLINATION,RA_OF_ASC_NODE,ARG_OF_PERICENTER,MEAN_ANOMALY,EPHEMERIS_TYPE,CLASSIFICATION_TYPE,NORAD_CAT_ID,ELEMENT_SET_NO,REV_AT_EPOCH,BSTAR,MEAN_MOTION_DOT,MEAN_MOTION_DDOT
LEMUR-1,2014-033AL,2026-06-11T16:51:08.256096,14.85225201,.00497472,97.7866,312.6298,96.1527,264.5359,0,U,40044,999,64465,.25193803E-3,.2154E-4,0
LEMUR-2-GREENBERG,2017-042N,2026-06-11T11:12:33.333408,15.31150950,.0009064,97.3816,343.1197,33.8606,326.3213,0,U,42837,999,48751,.43649E-3,.13082E-3,0
LEMUR-2-ANDIS,2017-042P,2026-06-11T23:10:43.938048,15.34640616,.00086161,97.3675,343.7823,31.1254,329.0498,0,U,42838,999,48765,.58469823E-3,.19597E-3,0
LEMUR-2-MONSON,2017-042Q,2026-06-11T00:07:12.396576,15.27848617,.00068284,97.4076,342.6414,27.7700,332.3903,0,U,42839,999,48722,.46797081E-3,.12667E-3,0
LEMUR-2-FURIAUS,2017-042R,2026-06-11T10:57:47.627136,15.30063384,.0008429,97.3767,341.0779,86.5295,273.6910,0,U,42840,999,48733,.51338E-3,.1489E-3,0
LEMUR-2-PETERG,2017-042S,2026-06-11T11:45:32.652000,15.33668998,.0003709,97.3985,347.5128,19.1907,340.9475,0,U,42841,999,48756,.59777E-3,.19411E-3,0
LEMUR-2-DEMBITZ,2017-042T,2026-06-11T17:43:22.093824,15.30127529,.00072136,97.3818,344.3768,46.8214,313.3628,0,U,42842,999,48751,.48803871E-3,.14174E-3,0
LEMUR-2-ZACHARY,2017-042W,2026-06-11T19:57:50.431680,15.49802535,.00032818,97.3603,354.3572,53.2541,306.9011,0,U,42845,999,48837,.77873841E-3,.43427E-3,0
LEMUR-2-AMANDA-SVANTE,2021-034B,2026-06-11T03:51:56.090304,15.33932852,.00015466,97.5765,240.2895,230.7421,129.3685,0,U,48269,999,28013,.78927463E-3,.25885E-3,0
LEMUR-2-SPECIAL-K,2021-034F,2026-06-11T18:34:40.674432,15.62930778,.00036436,97.5653,249.2456,232.3718,127.7210,0,U,48273,999,28084,.14851814E-2,.136195E-2,0
LEMUR-2-EMBRIONOVIS,2023-084AQ,2026-06-11T20:45:28.235232,15.37417029,.00080751,97.6275,306.8611,341.3077,18.7869,0,U,56970,999,16686,.34052511E-3,.12424E-3,0
LEMUR-2-DEVERILL-M-T,2023-100F,2026-06-11T21:44:04.774848,15.39493394,.00068607,99.4479,200.1394,66.7377,293.4584,0,U,57391,999,16043,.63447418E-3,.24856E-3,0
LEMUR-2-BASS,2023-174D,2026-06-11T22:58:36.532992,15.42919895,.00073593,97.3850,247.5972,179.0923,181.0339,0,U,58259,999,14455,.36804018E-3,.16116E-3,0
LEMUR-2-JK0903EM1407,2023-174CJ,2026-06-11T18:58:40.499328,15.51402886,.00059593,97.3919,253.1102,135.0332,225.1403,0,U,58336,999,14489,.43695349E-3,.25699E-3,0
LEMUR-2-MJR092620,2023-174CN,2026-06-11T18:46:33.362112,15.44676410,.00070888,97.3975,252.7125,133.4041,226.7799,0,U,58340,999,14481,.39210165E-3,.18229E-3,0
LEMUR-2-NIMBUS2000,2024-022A,2026-06-11T13:19:47.476704,15.39817873,.001014,97.4121,12.4872,133.1211,227.0884,0,U,58899,999,13140,.40213E-3,.15905E-3,0
LEMUR-2-VALHALLA,2024-022B,2026-06-11T13:12:39.957408,15.39502964,.0010714,97.4118,12.4759,129.4736,230.7459,0,U,58900,999,13140,.39049E-3,.15285E-3,0
LEMUR-2-OBA-NI-JESU,2024-022D,2026-06-11T14:36:38.123712,16.20690476,.0006471,97.3664,27.5729,226.2338,133.8417,0,U,58902,999,13243,.12571E-2,.2495421E-1,.24271E-5
LEMUR-2-CAEL,2024-022E,2026-06-11T19:47:43.043136,15.40800032,.00092489,97.4100,13.6801,113.2897,246.9324,0,U,58903,999,13151,.39252569E-3,.1603E-3,0
LEMUR-2-JOHNNYTRUONG,2024-043BA,2026-06-11T22:55:33.669984,15.60077132,.00046271,97.5365,314.3366,191.7493,168.3656,0,U,59146,999,12722,.46449853E-3,.37645E-3,0
LEMUR-2-TOMATOKECHUP,2024-149D,2026-06-11T23:03:24.970752,15.35920487,.00009418,97.3800,244.9943,187.6521,172.4709,0,U,60471,999,10136,.29131382E-3,.10107E-3,0
LEMUR-2-STELLA,2024-149BT,2026-06-11T18:52:40.257984,15.11690092,.00016217,97.6735,245.2178,99.3793,260.7620,0,U,60533,999,9968,.64753689E-3,.10966E-3,0
LEMUR-2-MARHISYAM,2024-149BW,2026-06-11T18:21:31.090752,15.11150731,.00032336,97.6886,245.6399,126.9480,233.2046,0,U,60536,999,9966,.60754694E-3,.10131E-3,0
LEMUR-2-AHMED-ASRAR,2024-149DN,2026-06-11T17:42:53.247456,15.12588501,.00022353,97.7002,247.6847,55.3889,304.7552,0,U,60576,999,9974,.61071789E-3,.106E-3,0
LEMUR-2-LLOYD,2024-149DP,2026-06-11T17:42:50.354784,15.09133840,.00047261,97.6752,243.8645,152.0786,208.0697,0,U,60577,999,9957,.55749488E-3,.8788E-4,0
LEMUR-2-SQUIRRELCOMM,2024-149DQ,2026-06-11T16:16:53.829120,15.07091230,.00069776,97.6716,243.6072,77.7014,282.4994,0,U,60578,999,9957,.35953207E-3,.5337E-4,0
LEMUR-2-SIERRINI,2024-149DR,2026-06-11T18:53:45.844224,15.10829992,.00054036,97.6838,245.3556,182.5364,177.5839,0,U,60579,999,9964,.64407362E-3,.10652E-3,0
LEMUR-2-WILSON,2025-009CP,2026-06-11T17:47:07.542528,14.95140698,.00043384,97.7023,241.3012,68.6431,291.5252,0,U,62694,999,7654,.16802655E-3,.1787E-4,0
LEMUR-2-STAR-FOX,2025-009CR,2026-06-11T18:21:25.272576,15.02423491,.00032682,97.6954,244.4125,125.5133,234.6397,0,U,62696,999,7674,.55308073E-3,.7272E-4,0
